ONEWEB-0340             
1 49206U 21083W   24258.58479847 -.00000084  00000+0 -24511-3 0  9997
2 49206  87.9063 102.9689 0001740  78.4859 281.6468 13.18690736145542
ONEWEB-0341             
1 49207U 21083X   24258.59269850  .00000075  00000+0  15706-3 0  9994
2 49207  87.9065 102.9799 0002483  85.2719 274.8697 13.18687981145561
ONEWEB-0342             
1 49208U 21083Y   24258.44843666  .00000071  00000+0  14386-3 0  9991
2 49208  87.9223  41.9114 0001826 101.6087 258.5251 13.20770659152204
ONEWEB-0343             
1 49209U 21083Z   24258.58797544  .00000108  00000+0  24133-3 0  9992
2 49209  87.9059 102.9828 0002342  92.0449 268.0951 13.18685314145611
ONEWEB-0344             
1 49210U 21083AA  24258.51548459  .00000296  00000+0  77689-3 0  9998
2 49210  87.8852  87.7387 0002184  81.5995 278.5382 13.13468286146792
ONEWEB-0345             
1 49211U 21083AB  24258.53295393  .00000201  00000+0  51627-3 0  9997
2 49211  87.8851  87.7079 0002145  78.9693 281.1678 13.13469504146806
ONEWEB-0346             
1 49212U 21083AC  24258.59743895  .00000036  00000+0  58279-4 0  9996
2 49212  87.9063 102.9877 0001697  70.4231 289.7084 13.18687628145555
ONEWEB-0348             
1 49213U 21083AD  24258.43896824  .00000139  00000+0  31065-3 0  9998
2 49213  87.9231  41.8937 0002042  77.5748 282.5614 13.20771188152238
